Center_Name,District,State,Email,Phone,Address,Region_District,Coordinates
Regional soil testing lab varanasi,VARANASI,UTTAR PRADESH,adstlab@gmail.com,+918765774352,"NH731B, Varanasi, Sadar, Varanasi, Uttar Pradesh, 221107, India",VARANASI,"25.30657716746371, 82.94934081230147"
"Ksetriya Bhumi Parikshan Prayogshala,Moradabad",MORADABAD,UTTAR PRADESH,stllabinchargembd@gmail.com,+918317010297,"Moradabad, Uttar Pradesh, 244001, India",MORADABAD,"28.8269901, 78.7581715"
Soil Testing Lab,BULANDSHAHR,UTTAR PRADESH,tchand.p@gmail.com,+918920853646,"Bulandshahr, बुलन्दशहर, Uttar Pradesh, 203001, India",BULANDSHAHR,", "
Soil Testing lab Sambhal,SAMBHAL,UTTAR PRADESH,stl659sambhal@gmail.com,+919457422038,"Sambhal, Uttar Pradesh, 244302, India",SAMBHAL,"28.585197, 78.570932"
DISTRICT SOIL TESTING LAB,JALAUN,UTTAR PRADESH,soiltestinglaborai@gmail.com,+919340862450,"Orai, Jalaun, Uttar Pradesh, India",JALAUN,"25.9979711792735, 79.45887042034285"
District Soil Testing Laboratory,BARABANKI,UTTAR PRADESH,anuraglko12@gmail.com,+917982142074,"NH927, Masauli, Nawabganj, Barabanki, Uttar Pradesh, 225203, India",BARABANKI,"26.992100351969267, 81.3114040168338"
Soil testing lab rampur,RAMPUR,UTTAR PRADESH,gajendrapalsingh5283@gmail.com,+918218775459,"Rampur, Rampur District, Uttar Pradesh, 244901, India",RAMPUR,"28.786911781250012, 79.01633002408758"
LAB_deoria,DEORIA,UTTAR PRADESH,smchaurasiya77@gmail.com,+918858298112,"UMA Nagar, Deoria, Uttar Pradesh, 274001, India",DEORIA,"26.497404911030046, 83.77447851612817"
REGIONAL SOIL TESTING LABORATORY ALAMBAGH LUCKNOW,LUCKNOW,UTTAR PRADESH,munendrata@gmail.com,+919838153951,"Charbagh, Lucknow, Uttar Pradesh, 226019, India",LUCKNOW,"26.82578154684776, 80.91636240336825"
Soil Testing Lab Raebareli,RAE BARELI,UTTAR PRADESH,sgovind1087@gmail.com,+918423251978,"रायबरेली, Raebareli, Uttar Pradesh, 229001, India",RAE BARELI,"26.1906345, 81.2577777"
"STL, LALITPUR",LALITPUR,UTTAR PRADESH,pankajindorians@gmail.com,+919425347954,"Lalitpur, Lalitpur Tehsil, Lalitpur, Uttar Pradesh, 284403, India",LALITPUR,"24.6935695, 78.4178866"
Soil Testing Lab Chandauli,CHANDAULI,UTTAR PRADESH,samarbahadurdaulatiya9@gmail.com,+919616782971,"चंदौली, Chandauli, Uttar Pradesh, 232104, India",CHANDAULI,"25.259551294075298, 83.24273044169746"
Assistant Director Soil Testing and Culture Bilwa Bareilly,BAREILLY,UTTAR PRADESH,jitu.singh0070@gmail.com,+917276516781,"NH530, Bareilly, Bareilly District, Uttar Pradesh, 243001, India",BAREILLY,", "
Soil Testing Lab Budaun,BUDAUN,UTTAR PRADESH,dmpradeep100@gmail.com,+919149356105,"Budaun, Uttar Pradesh, 243600, India",BUDAUN,"28.02614885252789, 79.12937738423294"
Soil Testing Lab Amroha,AMROHA,UTTAR PRADESH,surendrasinghaai@gmail.com,+917983315219,"अमरोहा, Amroha, Jyotiba Phule Nagar, उत्तर प्रदेश, 244221, भारत",AMROHA,"28.890008542502, 78.47658279344141"
DISTRICT SOIL TESTING LABORATORY,MAHARAJGANJ,UTTAR PRADESH,ks294193@gmail.com,+919026449743,"Maharajganj, Mahrajganj, Uttar Pradesh, 273303, India",MAHARAJGANJ,"27.160505, 83.5762113"
SOIL TESTING LAB ALIGARH,ALIGARH,UTTAR PRADESH,ppsingh020882@gmail.com,+919719037174,"Koil, अलीगढ़ जिला, Uttar Pradesh, India",ALIGARH,"28.0632849, 78.1994793"
Soil Testing Lab,HATHRAS,UTTAR PRADESH,kcssri87@gmail.com,+918979527080,"Sasni, Hathras, Uttar Pradesh, 204101, India",HATHRAS,"27.1816375, 77.9915469"
District Soil Testing Lab Shahjahanpur,SHAHJAHANPUR,UTTAR PRADESH,Veerpalkashyap627@gmail.com,+918521786609,"Lodhipur, Shahjahanpur, Uttar Pradesh, India",SHAHJAHANPUR,"27.8796125, 79.9283647"
District Soil Testing Laboratory Fatehpur,FATEHPUR,UTTAR PRADESH,premdansingh@gmail.com,+918853041877,"NH19, फतेहपूर, फ़तेहपुर, उत्तर प्रदेश, 212600, भारत",FATEHPUR,"25.935915730542668, 80.8322691596326"
S.T.L Bijnor,BIJNOR,UTTAR PRADESH,subodhkumar130789@gmail.com,+919258841948,"बिजनौर, Bijnor, Uttar Pradesh, 246700, India",BIJNOR,"29.36911282392119, 78.13413846593014"
LAB SITAPUR,SITAPUR,UTTAR PRADESH,yadavshivkumar34@gmail.com,+919412183168,"Sitapur, Uttar Pradesh, 261001, India",SITAPUR,"27.59356717460016, 80.67761635642896"
"District Soil Testing Lab, Mau",MAU,UTTAR PRADESH,laxmikantyadav119@gmail.com,+919670032034,"Mau, Maunath Bhanjan, Mau, Uttar Pradesh, 275101, India",MAU,"25.931230261929663, 83.57427148669449"
Soil Testing Lab Shravasti,SHRAVASTI,UTTAR PRADESH,ikhlaqknp@gmail.com,+919935168084,"Bhinga, Sharawasti, Uttar Pradesh, 271831, India",SHRAVASTI,"27.71579739834362, 81.93667663902637"
Lab Jaunpur,JAUNPUR,UTTAR PRADESH,soiltestinglabjaunpur@gmail.com,+919450241796,"NH31;NH731, Jaunpur, Uttar Pradesh, 222001, India",JAUNPUR,"25.736879500851288, 82.67757082133771"
STL ETAH,ETAH,UTTAR PRADESH,scyadav181@gmail.com,+919457604077,"Etah, Uttar Pradesh, 207001, India",ETAH,"27.545134818690016, 78.6837829361311"
LAB PRATAPGARH,PRATAPGARH,UTTAR PRADESH,pbhsoil123@gmail.com,+918318007727,"Katra Road, Pratapgarh, Uttar Pradesh, 230001, India",PRATAPGARH,"25.91311951590359, 81.98716677573614"
SOIL TESTING LAB,MEERUT,UTTAR PRADESH,ANILK19911991@GMAIL.COM,+919458738043,"Delhi road, Meerut, Uttar Pradesh, 250002, India",MEERUT,"28.9582105947516, 77.68411827321793"
Lab Kannauj,KANNAUJ,UTTAR PRADESH,stl.kannauj155@gmail.com,+918299525424,,KANNAUJ,"None, None"
Janpadiya Bhumi Parikshad Prayogsala,KUSHI NAGAR,UTTAR PRADESH,sarveshkumarsharma182@gmail.com,+917905433001,"Padrauna, Kushinagar, Uttar Pradesh, 274304, India",KUSHI NAGAR,"26.889836906714443, 83.98600417740906"
मृदा परीक्षण प्रयोगशाला कासगंज,Kasganj,UTTAR PRADESH,rohitashkumar1824@gmail.com,+918279563471,"Kasganj, Uttar Pradesh, India",Kasganj,"27.760129870733618, 78.52121608886243"
soil testing lab hapur,HAPUR,UTTAR PRADESH,prvnnehra@gmail.com,+919837760836,"Hapur, Uttar Pradesh, 245101, India",HAPUR,"28.67894642427021, 77.7432103942618"
Soil Testing Lab Baghpat,BAGHPAT,UTTAR PRADESH,Rishpal092@gmail.com,+919058595892,"Baghpat, Uttar Pradesh, 250609, India",BAGHPAT,"28.938002982487117, 77.25370095976041"
"soil testing lab, bhadohi",BHADOHI,UTTAR PRADESH,pavanbhu07@gmail.com,+917071523641,"Gyanpur-Bhadohi Road, Gyanpur, Sant Ravidas Nagar, Uttar Pradesh, 221304, India",BHADOHI,"25.34881505770185, 82.49614480346952"
"Regional Soil Testing Lab, Kanpur Nagar",KANPUR NAGAR,UTTAR PRADESH,chhotebabu1983@gmail.com,+919058595892,"Krashi Bhavan , Kanpur Mandal Kanpur, Rawatpur Kanpur Nagar, Uttar Pradesh, 208002, India",KANPUR NAGAR,"18.610749145320113, 73.91021988950276"
Regional soil testing lab kotwa azamgarh,AZAMGARH,UTTAR PRADESH,stlazamgarh123@gmail.com,+919628589044,"NH28, Azamgarh, Uttar Pradesh, 276001, India",AZAMGARH,"26.02620399739931, 83.14200513352105"
soil testing lab Ghaziabad,GHAZIABAD,UTTAR PRADESH,soillabghaziabad@gmail.com,+917987704682,"Ghaziabad, Ghaziabad District, Uttar Pradesh, 201002, India",GHAZIABAD,"28.6744821, 77.4459129"
"क्षेत्रीय भूमि परीक्षण प्रयोगषाला,गोरखपुर",GORAKHPUR,UTTAR PRADESH,sbsandhyabharti@gmail.com,+919918709920,Uttar Pradesh,GORAKHPUR,"26.80041697293387, 83.39101964184384"
"District Soil Testing Lab, Sonbhadra",SONBHADRA,UTTAR PRADESH,stl.184sonebhdra@gmail.com,+918808138904," Mangurahi ( Deputy Director Agriculture office Campus,Robertsganj, Sonbhadra, Uttar Pradesh, 231209, India",SONBHADRA,"24.7638219033233, 83.06416199152223"
adst lab mirzapur,MIRZAPUR,UTTAR PRADESH,STLABMIRZAPUR@GMAIL.COM,+919896124068,"Mirzapur, Mirzapur District, Uttar Pradesh, 231001, India",MIRZAPUR,"25.181331004547157, 82.60599368100755"
soil testing lab prayagraj,PRAYAGRAJ,UTTAR PRADESH,ranjeevmaurya@gmail.com,+918858522007,"Harwara, Prayagraj, Uttar Pradesh, 211001, India",PRAYAGRAJ,"25.448137817290444, 81.77022707472803"
District soil lab hamirpur,HAMIRPUR,UTTAR PRADESH,imshwetaranjan@gmail.com,+918004497569,"Hamirpur, उत्तर प्रदेश, 210301, भारत",HAMIRPUR,"25.89534868191597, 80.11122795386918"
"SOIL TESTING LAB, BARA, KANPUR DEHAT",KANPUR DEHAT,UTTAR PRADESH,mamteshkatiyarstlkd@gmail.com,+918081869058,"NH19;NH27, Akbarpur, Kanpur Dehat, Uttar Pradesh, India",KANPUR DEHAT,"26.38291358237903, 80.01209691441382"
"soil testing lab, lakhimpur-kheri",KHERI,UTTAR PRADESH,cshakher670@gmail.com,+919648484968,Soul Buoy,KHERI,"-5e-07, 5e-07"
Soil Testing Lab Ballia,BALLIA,UTTAR PRADESH,rkvamh91@gmail.com,+919889177154,"Ballia, Uttar Pradesh, 277001, India",BALLIA,"25.764832915666442, 84.14311285311928"
"Soil Testing Lab, Etawah",ETAWAH,UTTAR PRADESH,ddaretw@gmail.com,+918607330729,"Etawah, Uttar Pradesh, 206001, India",ETAWAH,"26.785254878222627, 78.99971836598819"
soil testing lab manjhanpur kaushambi,KAUSHAMBI,UTTAR PRADESH,stl.kaushambi158@gmaill.com,+919714179953,"Manjhanpur, Kaushambi, Uttar Pradesh, 212207, India",KAUSHAMBI,"25.532371416179654, 81.38560855280154"
soil testing lab bahraich,BAHRAICH,UTTAR PRADESH,vk3731498@gmail.com,+916398044641,"बहराइच, Bahraich, बहराइच, Uttar Pradesh, 271801, India",BAHRAICH,"27.58341451210549, 81.6309641317469"
Regional Soil Testing lab Basti,BASTI,UTTAR PRADESH,adstlbasti@gmail.com,+919670015551,"Company bagh, MDR93E, Basti, Uttar Pradesh, 272001, India",BASTI,"26.789466712754084, 82.72521043164114"
soil testing lab,GAUTAM BUDDHA NAGAR,UTTAR PRADESH,rohitsharma44ma@gmail.com,+919991149211,"Kherli Hafizpur, BulandKhera, Gautam Buddha Nagar, Uttar Pradesh, 203202, India",GAUTAM BUDDHA NAGAR,"28.38822101633176, 77.61796060503362"
District Soil testing lab,SIDDHARTH NAGAR,UTTAR PRADESH,stl182siddharthnagar@gmail.com,+919410456163,"Krishi Bhawan Siddharthnagar, NH28;NH730, Naugarh, Siddharth Nagar, Uttar Pradesh, 272203, India",SIDDHARTH NAGAR,"27.2786386, 83.0639536"
Regonal Soil Testing Lab Ayodhya,AYODHYA,UTTAR PRADESH,sunily086@gmail.com,+918057712389,"Faizabad, Uttar Pradesh, 224001, India",AYODHYA,"26.7711358, 82.1264385"
LAB FARRUKHABAD,FARRUKHABAD,UTTAR PRADESH,Pradeepstlfarrukh@gmail.com,+919793978689,"Farrukhabad, Uttar Pradesh, 209625, India",FARRUKHABAD,"27.384333579827256, 79.60683908629974"
Soil Testing Lab Sultanpur,SULTANPUR,UTTAR PRADESH,kumarbrijendra642@gmail.com,+919918979747,"Sultanpur, Uttar Pradesh, 228001, India",SULTANPUR,"26.211645359324425, 82.05713920941827"
soil testing lab auraiya,AURAIYA,UTTAR PRADESH,dstlauraiya@gmail.com,+918887644582,"Auraiya, Uttar Pradesh, 206122, India",AURAIYA,"26.460263971406185, 79.5020003013583"
District Soil Testing Laboratory Mahoba,MAHOBA,UTTAR PRADESH,stl.165mahoba@gmail.com,+919450178833,"Rath Road Mahoba, Uttar Pradesh, 210427, India",MAHOBA,"25.2928557, 79.85215769999999"
"District Soil Testing Lab, Tala, Amethi",Amethi,UTTAR PRADESH,mauryaalok61@gmail.com,+918787685868,"NH931,Tala,  Amethi, Uttar Pradesh, 227405, India",Amethi,"26.176204497836334, 81.74876324420472"
District soil testng lab civil line firozabad,FIROZABAD,UTTAR PRADESH,javidali15091994@gmail.com,+917078304728,"D.M Office Firozabad, Civil Line Road, Dabrai, Uttar Pradesh, India",FIROZABAD,"27.127739, 78.4575222"
regional soil testing lab jhansi,JHANSI,UTTAR PRADESH,garimagupta90.gk@gmail.com,+917007817045,"Jhansi, Uttar Pradesh, 284002, India",JHANSI,"25.449980628153103, 78.56464829208713"
"SOIL TESTING LAB, MATHURA",MATHURA,UTTAR PRADESH,rajneshbabu96@gmail.com,+919411234232,"Yamuna Expressway, Diwana Khurd, Mat, मथुरा, Agra division, Uttar Pradesh, 281204, India",MATHURA,"27.534551365210493, 77.7605371085915"
Soil Testing Laboratory Unnao,UNNAO,UTTAR PRADESH,kanojiya2232@gmail.com,+918052542968,"SH38, Unnao, Uttar Pradesh, 209800, India",UNNAO,"26.59140918684409, 80.45962132398664"
soil testing lab mainpuri,MAINPURI,UTTAR PRADESH,soiltestinglaboratorymainpuri@gmail.com,+918650415012,"Mainpuri, Uttar Pradesh, 205001, India",MAINPURI,"27.2065818, 79.0220559"
REGIONAL SOIL TESTING LABOUTRY GONDA,GONDA,UTTAR PRADESH,addevipatanmandal@gmail.com,+919812056051,"Gonda, Uttar Pradesh, 271001, India",GONDA,"27.125427, 81.9394073"
LAB SAHARANPUR,SAHARANPUR,UTTAR PRADESH,at4517845@gmail.com,+918126080103,"Saharanpur, Uttar Pradesh, 247001, India",SAHARANPUR,"29.967096516142924, 77.55908991337401"
LAB MUZAFFARNAGAR,MUZAFFARNAGAR,UTTAR PRADESH,naresh.kumar09090@gmail.com,+917906617706,"Old NH58, Muzaffarnagar, Uttar Pradesh, 251001, India",MUZAFFARNAGAR,"29.448596138588073, 77.69753529189917"
LAB SHAMLI,SHAMLI,UTTAR PRADESH,sannychauhan647@gmail.com,+918006118033,"Kairana, Shamli, Uttar Pradesh, 247774, India",SHAMLI,"29.386475628348304, 77.20196699198232"
Soil lab ghazipur,GHAZIPUR,UTTAR PRADESH,stl.146ghazipur@gmail.com,+919598230191,"Ghazipur, Uttar Pradesh, 233001, India",GHAZIPUR,"25.578714928067164, 83.55716606408923"
soil testing lab ambedkarnagar,AMBEDKAR NAGAR,UTTAR PRADESH,lovelysinghp4@gmaol.com,+918130206150,"SH5; SH30, Akbarpur, Ambedkar Nagar, Uttar Pradesh, 224122, India",AMBEDKAR NAGAR,"26.43781183132664, 82.54513927425974"
District soil testing LAB. karvi Chitrakoot,CHITRAKOOT,UTTAR PRADESH,anandsen4554@gmail.com,+919119951591,"Chitrakoot Dham, Karwi, Chitrakoot, Uttar Pradesh, 210205, India",CHITRAKOOT,"25.213335651114303, 80.92168595380706"
Regional soil testing Lab Agra,AGRA,UTTAR PRADESH,agraadst@gmail.com,+919149114609,"Beej Godam, Peer Kalyani Road, Near Paliwal park, Agra, Uttar Pradesh, 282004, India",AGRA,"27.1766701, 78.00807449999999"
DISTRICT SOIL TESTING LAB HARDOI,HARDOI,UTTAR PRADESH,ratdshardoi@gmail.com,+919473569255,"Soil Testing Lab Hardoi Uttar Pradesh, Circular Road, Hardoi, Uttar Pradesh, India",HARDOI,"27.3820925, 80.12471769999999"
District Soil Testing Lab,PILIBHIT,UTTAR PRADESH,Stl.173pilibhit@gmail.com,+919504672849,"पीलीभीत, Pilibhit, Pilibhit District, Uttar Pradesh, 262001, India",PILIBHIT,"28.633968240596406, 79.81914093686459"
SOIL TESTING LAB BANDA,BANDA,UTTAR PRADESH,shree10183@gmail.com,+919919293758,"Swraj Colony, Banda, Uttar Pradesh, 210001, India",BANDA,"25.49246029164243, 80.33412678125248"
soil testing laboratory balrampur,BALRAMPUR,UTTAR PRADESH,chhotecsa50@gmail.com,+918787262893,"Balrampur, Uttar Pradesh, India",BALRAMPUR,"27.487898683938074, 82.13822848738349"
District Level Soil Testing lab Santkabeer nagar,SANT KABEER NAGAR,UTTAR PRADESH,stl.178santkabeernagar@gmail.com,+918299113219,"Q3VF+5RV Khatauli, Uttar Pradesh, India",SANT KABEER NAGAR,"26.792992014879943, 83.07455206073267"
Mini Lab Etmadpur,AGRA,UTTAR PRADESH,anilkumarj@gmail.com,+919412336654,etmadpur agra,AGRA,"27.2333127, 78.1991896"
Mini laboratory Modinagar,GHAZIABAD,UTTAR PRADESH,dcgupta1996@gmail.com,+918630241440,"Yakutpur Mavi, Uttar Pradesh 201204, India",GHAZIABAD,"28.8533885, 77.55907599999999"
MINI LAB JALESAR,ETAH,UTTAR PRADESH,ramsevakskb@gmail.com,+918171420599,"Jalesar, Uttar Pradesh, India",ETAH,"27.4714557, 78.31024889999999"
Mini Lab Hasanpur,AMROHA,UTTAR PRADESH,moralyasveer@gmail.com,+918923899931,"Hasanpur, Amroha, Uttar Pradesh, India",AMROHA,"28.7237807, 78.2846303"
Mini Lab Najibabad,BIJNOR,UTTAR PRADESH,ratiramsyahoomail.in@gmail.com,+916397770768,"Sevaram, Najibabad, Uttar Pradesh, India",BIJNOR,"29.6074556, 78.3458198"
MINI LAB ALIGANJ,ETAH,UTTAR PRADESH,s87588036@gmail.com,+919457054999,"Aliganj, Etah, Uttar Pradesh, India",ETAH,"27.4922073, 79.1689623"
mini_chandausi,SAMBHAL,UTTAR PRADESH,minilabchandausi@gmail.com,+919457422038,"Geeta Colony, Chandausi, Uttar Pradesh 244412, India",SAMBHAL,"28.4602776, 78.788704"
Mini Lab Dhanaura,AMROHA,UTTAR PRADESH,manojrana971970@gmail.com,+919719705037,"Dhanaura, Amroha, Uttar Pradesh, India",AMROHA,"28.9546106, 78.2647004"
Mini Lab Chandpur,BIJNOR,UTTAR PRADESH,kapilrathi8@gmail.com,+919897843491,"Chandpur - Noorpur Road, Pipalsana, Uttar Pradesh, India",BIJNOR,"29.1306274, 78.3000145"
Mini Lab Dhampur,BIJNOR,UTTAR PRADESH,umardeen1982@gmail.com,+918923108430,"Dhampur shila, State Highway 49, Alhaipur, Dhampur, Uttar Pradesh, India",BIJNOR,"29.2864202, 78.5216186"
minilabgunnaur,SAMBHAL,UTTAR PRADESH,minilabgunnaur@gmail.com,+919457422038,"Gunnaur, Uttar Pradesh, India",SAMBHAL,"28.2362323, 78.4382469"
Mini Lab Nagina,BIJNOR,UTTAR PRADESH,ramparsad8585@gmail.com,+917017534981,"Rampur Dass, Uttar Pradesh, India",BIJNOR,"29.4304783, 78.4140817"
STATIC LAB NICHLAUL,MAHARAJGANJ,UTTAR PRADESH,jnp9450@gmail.com,+917355401896,"8P4J+F27 Nichlaul, Uttar Pradesh, India",MAHARAJGANJ,"27.306155283268893, 83.73004475103697"
Mini Lab Thakurdwara,MORADABAD,UTTAR PRADESH,snaubahar25@gmail.com,+918077686502,"Thakurdwara, Uttar Pradesh, India",MORADABAD,"29.1911483, 78.8607099"
STATIC LAB PHARENDA,MAHARAJGANJ,UTTAR PRADESH,rikku9454@gmail.com,+916394690136,"27C8+986 Chaumukha, Uttar Pradesh, India",MAHARAJGANJ,"27.020917602080743, 83.26575068144365"
Mini Lab Bilari,MORADABAD,UTTAR PRADESH,mohit918@gmail.com,+917983300918,"Bilari, Uttar Pradesh, India",MORADABAD,"28.6232517, 78.80126299999999"
MINI LAB NAUTANWA,MAHARAJGANJ,UTTAR PRADESH,omp44896@gmail.com,+919935600610,"CCGG+4QH Nautanwa, Uttar Pradesh, India",MAHARAJGANJ,"27.425323029119635, 83.42699232144624"
MINI LAB SAKALDIHA,CHANDAULI,UTTAR PRADESH,mishravinay627@gmail.com,+919695222211,"9735+W62 Etawan, Uttar Pradesh, India",CHANDAULI,"25.354764339984282, 83.25802683245985"
GHATAMPUR,KANPUR NAGAR,UTTAR PRADESH,sachanharish79@gmail.com,+917985750301,"5534+F7C Ghatampur, Uttar Pradesh, India",KANPUR NAGAR,"26.153697960574014, 80.15565314117111"
BILHAUR,KANPUR NAGAR,UTTAR PRADESH,sainidevendra080@gmail.com,+919140908307,"R3GC+2PV Subhanpur Muradnagar, Uttar Pradesh, India",KANPUR NAGAR,"26.825120112085596, 80.07178988857605"
Mini STL Suar,RAMPUR,UTTAR PRADESH,visheshchauhan.ag@gmail.com,+916397697914,"Suar, Rampur Uttar Pradesh 244924, India",RAMPUR,"29.0247574, 79.0560311"
Mini STL Milak,RAMPUR,UTTAR PRADESH,abhaysinghchouhan6007@gmail.com,+919761591251,"Loha Patti Bhola Nath, Rampur, Uttar Pradesh 243701, India",RAMPUR,"28.6465799, 79.1463868"
meerganj,BAREILLY,UTTAR PRADESH,gangwarshiv9457@gmail.com,+919457290070,"Mirganj, Bareilly Division, Uttar Pradesh, India",BAREILLY,"28.5420551, 79.2084565"
aonla,BAREILLY,UTTAR PRADESH,vikasrana063@gmail.com,+917417843356,"HM7H+77P Ejri, Uttar Pradesh, India",BAREILLY,"28.563224167443387, 78.67821345371215"
faridpur,BAREILLY,UTTAR PRADESH,gauravamity09@gmail.com,+919451841507,"Faridpur, Bareilly Division, Uttar Pradesh, India",BAREILLY,"28.2091237, 79.53776169999999"
Mini STL Talbehat,LALITPUR,UTTAR PRADESH,rajeshm353@gmail.com,+919754967696,"Talbehat, Lalitpur, Uttar Pradesh, India",LALITPUR,"25.04426, 78.431061"
Mini STL Bilaspur,RAMPUR,UTTAR PRADESH,mangalms1977@gmail.com,+919837544811,"Hurmat Nagar, Rampur, Uttar Pradesh, India",RAMPUR,"28.730531, 79.2592105"
BAHERI,BAREILLY,UTTAR PRADESH,121msarya@gmail.com,+917983915183,"Baheri, Bareilly Division, Uttar Pradesh, India",BAREILLY,"28.7780401, 79.4956974"
Nawabganj,BAREILLY,UTTAR PRADESH,vk2012.pbt@gmail.com,+916397354618,"Nawabganj, Bareilly Division, Uttar Pradesh, India",BAREILLY,"28.5405365, 79.6305599"
Mini STL Mahroni,LALITPUR,UTTAR PRADESH,ishwardhakad0@gmail.com,+919754310515,"Mahroni, Uttar Pradesh, India",LALITPUR,"24.5831479, 78.7277814"
Mini STL Shahabad,RAMPUR,UTTAR PRADESH,dhakaranveersingh@gmail.com,+919411010042,"Turkhera, Rampur, Uttar Pradesh, India",RAMPUR,"28.5403631, 79.0002221"
MiniLab_Lalganj,AZAMGARH,UTTAR PRADESH,kailashnathray726@gmail.com,+919628589044,"Lalganj Azamgarh Uttar Pradesh, India",AZAMGARH,"25.782387065170607, 83.02364053410965"
Mini Lab,HAPUR,UTTAR PRADESH,justcool150@gmail.com,+919456959571,"Brijghat, Uttar Pradesh 245205, India",HAPUR,"28.7556499, 78.1407651"
Mini Lab,AYODHYA,UTTAR PRADESH,dcgupta1790@gmail.com,+918957702009,"Tenduaa mafi bikapur, Bikapur, Ayodhya, Uttar Pradesh, India",AYODHYA,"26.6021681, 82.1332084"
Mini Lab Lalganj,RAE BARELI,UTTAR PRADESH,arvindruhi1984@gmail.com,+919956091216,"Banna Mau, Uttar Pradesh 229206, India",RAE BARELI,"26.1867687, 80.98987009999999"
mini lab ghosi,MAU,UTTAR PRADESH,rakeshbrnwl.ag@gmail.com,+919616263669,"4G6V+Q8M Ghosi, Uttar Pradesh, India",MAU,"26.111971951109954, 83.54328490231576"
Minilab_Phulpur,AZAMGARH,UTTAR PRADESH,yadovkailash6@gmail.com,+918528020842,"Phulpur Azamgarh Uttar Pradesh, India",AZAMGARH,"26.073430667427143, 82.86967665523576"
GABHANA STHAN JAWAN,ALIGARH,UTTAR PRADESH,psingh020882@gmail.com,+919719037174,"Jawan, Uttar Pradesh, India",ALIGARH,"25.3479623, 78.8580815"
Mini Lab Sahaswan,BUDAUN,UTTAR PRADESH,sharma9456@gmail.com,+917906344221,"Sahaswan Bisoli Road, Khitaura Kundan, Uttar Pradesh, India",BUDAUN,"28.1419938, 78.832922"
MINI LAB TANDA,AMBEDKAR NAGAR,UTTAR PRADESH,subhagram27@gmail.com,+917052044136,"GMV8+GV6 Tanda, Uttar Pradesh, India",AMBEDKAR NAGAR,"26.543796722338598, 82.66713852334007"
Mini Lab Kaimganj,FARRUKHABAD,UTTAR PRADESH,BhagwanSingh80936@gmail.com,+918384831830,Pitoura kaimganj farrukhabad up,FARRUKHABAD,"27.5347926, 79.34373939999999"
IGLAS,ALIGARH,UTTAR PRADESH,kumarjayvesh178@gmail.com,+919759135136,"Tehra, Uttar Pradesh 202124, India",ALIGARH,"27.7080526, 77.93674089999999"
Muhammadabad Gohna,MAU,UTTAR PRADESH,laxmikantyadav1199@gmail.com,+919670032034,"2C6F+MRG Mahtabpur, Uttar Pradesh, India",MAU,"26.011687176464772, 83.42458477633919"
Static Lab Kerakat,JAUNPUR,UTTAR PRADESH,aksharma6363@gmail.com,+919129607915,"Khujjhi, Jaunpur, Uttar Pradesh, India",JAUNPUR,"25.6220678, 82.9904737"
Mini Lab,AYODHYA,UTTAR PRADESH,hiralalmaurya9450@gmail.com,+919450779567,"Bhelsar - Rudauli Ayodhya Uttar Pradesh, India",AYODHYA,"26.7807509, 81.7769414"
Mini Lab Fatehpur,BARABANKI,UTTAR PRADESH,surajpalup@gmail.com,+917843808442,"Soil Testing Lab, SDAEO Office, Kheria fatehpur, Uttar Pradesh, India",BARABANKI,"27.18732128116549, 81.21338645154019"
ATRAULI,ALIGARH,UTTAR PRADESH,singharvir50@gmail.com,+916397931520,"Atrauli, Uttar Pradesh, India",ALIGARH,"28.0305378, 78.285805"
Lab Rath,HAMIRPUR,UTTAR PRADESH,ramrajput1390@gmail.com,+918576092613,"Rath Dakhin, Uttar Pradesh, India",HAMIRPUR,"25.5747851, 79.5519144"
Mini Lab Dataganj,BUDAUN,UTTAR PRADESH,chandubaba658@gmail.com,+917906328817,"Dataganj Tiraha, Budaun, Uttar Pradesh",BUDAUN,"28.0393343, 79.1386909"
Mini lab jalalpur,AMBEDKAR NAGAR,UTTAR PRADESH,shivbverma90@gmail.com,+918933058260,"8P6M+FM7 Jalalpur, Uttar Pradesh, India",AMBEDKAR NAGAR,"26.31117246808396, 82.73418313285731"
KHAIR STHAN SOMNA,ALIGARH,UTTAR PRADESH,pushpendrasaraswa04@gmail.com,+918393930073,"Somna, Uttar Pradesh, India",ALIGARH,"28.0569882, 77.93924"
Static Lab Shahganj,JAUNPUR,UTTAR PRADESH,lbjgzp1985@gmail.com,+918005239416,"Takha Mariyam West, Uttar Pradesh, India",JAUNPUR,"26.0820965661025, 82.68412458132221"
Mini Lab Bisauli,BUDAUN,UTTAR PRADESH,netrapals76@gmail.com,+918126329062,"Bisauli, Badaun Road, Bisauli, Uttar Pradesh, India",BUDAUN,"28.302852, 78.9452091"
Tehsil stareey mrida pareeshan lab Atarra,BANDA,UTTAR PRADESH,dixitbobby22@gmail.com,+919651893554,"Atarra Rural, Uttar Pradesh, India",BANDA,"25.269747, 80.5382889"
Minilab_Sagri,AZAMGARH,UTTAR PRADESH,vt76300@gmail.com,+918765508955,"Sagri Azamgarh, Uttar Pradesh, India",AZAMGARH,"26.146901833535992, 83.31433232465791"
Lab Tamkuhi Raj,KUSHI NAGAR,UTTAR PRADESH,rajendrakharwar8@gmail.com,+919838436631,"M5QH+MGG Tamakuhi Raj, Uttar Pradesh, India",KUSHI NAGAR,"26.68917534456426, 84.17881619792887"
Mini Lab Haidergarh,BARABANKI,UTTAR PRADESH,sanjeev8159@gmail.com,+919140299450,"SDAEO Office Near Kotwali Haidargarh, Uttar Pradesh, India",BARABANKI,"26.60952156595076, 81.35909440296071"
Tahsil Stariya Prayogshala Moth,JHANSI,UTTAR PRADESH,gaurav34578@gmail.com,+919795854104,"Moth, Jhansi, Uttar Pradesh, India",JHANSI,"25.7405325, 78.948623"
LAB CHHIBRAMAU,KANNAUJ,UTTAR PRADESH,stl.155kannauj@gmail.com,+918604103656,"Navin Mandi Chhibramau 2nd gate, Chhibramau, Uttar Pradesh, India",KANNAUJ,"27.1590881, 79.4799547"
Minilab_burhanpur,AZAMGARH,UTTAR PRADESH,pramodagri90@gmail.com,+918429265766,"7296+42M Burhanpur, Uttar Pradesh, India",AZAMGARH,"26.267839948947902, 83.01003720260977"
Tahsil stariya Prayogshala Mauranipur,JHANSI,UTTAR PRADESH,sspyadav9580@gamil.com,+919580296441,"Mauranipur, Uttar Pradesh, India",JHANSI,"25.2462197, 79.1365959"
Puranpur,PILIBHIT,UTTAR PRADESH,dkv1146@gmail.com,+919997307119,"Block Road, Puranpur, Uttar Pradesh, India",PILIBHIT,"28.5013911, 80.1551388"
Mini Lab SAHJANWA,GORAKHPUR,UTTAR PRADESH,Vb311706@gmail.com,+918400678358,"Bhiti Rawot, Uttar Pradesh, India",GORAKHPUR,"26.756109, 83.1702597"
Labpatiyali,Kasganj,UTTAR PRADESH,13.akraghav@gmail.come,+918958714941,Patiyali ,Kasganj,"-18.851693408778207, 91.93508176795581"
Static Lab Machhalishahar,JAUNPUR,UTTAR PRADESH,himanshuagrotech@gmail.com,+919450337722,daudpur machhalishahar jaunpur,JAUNPUR,"25.6957778, 82.4332952"
Tahsil Stariya Paryogshal garautha,JHANSI,UTTAR PRADESH,cchandrashekhar7749@gamil.com,+917518009255,"Garautha, Uttar Pradesh, India",JHANSI,"25.5739253, 79.29866679999999"
Bisalpur,PILIBHIT,UTTAR PRADESH,motirampal26@gmail.com,+918057712389,"Agarwal sabha bada prangad, Station Road, Bisalpur, Uttar Pradesh, India",PILIBHIT,"28.2901245, 79.8080442"
"Tehsil Level Soil Testing Laboratory, Benipur, Amethi",Amethi,UTTAR PRADESH,anilvishvkarma2014@gmail.com,+919918552620,"Benipur, Amethi, Uttar Pradesh, India",Amethi,"26.1741273, 81.8319995"
Static Lab Bairia,BALLIA,UTTAR PRADESH,absinghmirzapur@gmail.com,+918765774352,"Kotwa, Uttar Pradesh 277208, India",BALLIA,"25.7914492, 84.4835396"
Mini Lab Tilhar,SHAHJAHANPUR,UTTAR PRADESH,labkush28@gmail.com,+919719159958,bahadurganj tilhar 242307,SHAHJAHANPUR,"14.846830071251285, 78.795579384887"
Mini Lab BASGAON,GORAKHPUR,UTTAR PRADESH,Yogendranathsingh11@gmail.com,+919935084479,"Belipar, Uttar Pradesh, India",GORAKHPUR,"26.58981, 83.4069787"
Maudaha Lab,HAMIRPUR,UTTAR PRADESH,afzal8496@gmail.com,+916393083977,"Ragaul, Uttar Pradesh, India",HAMIRPUR,"25.6885546, 80.08980849999999"
Lab Sukrauli,KUSHI NAGAR,UTTAR PRADESH,rakeshpandeyadoag@gmail.com,+919005263428,"PMM4+V66 Shukrauli, Uttar Pradesh, India",KUSHI NAGAR,"26.73465071002454, 83.65552602797769"
Mini Lab GOLA,GORAKHPUR,UTTAR PRADESH,yadavrajnarayan126@gmail.com,+919198377576,"Ranipur, Uttar Pradesh, India",GORAKHPUR,"25.2512993, 79.061719"
Static Lab Mariahu,JAUNPUR,UTTAR PRADESH,singhanupam1@gmail.com,+919026451254,"Mai, Uttar Pradesh 222203, India",JAUNPUR,"25.4652003, 82.5774498"
Mini Lab Ramnagar,BARABANKI,UTTAR PRADESH,kuldeep2dixit1994@gmail.com,+917355161255,"Soil Testing Lab Near SDAEO Office Ramnagar Pure Chhapti, Uttar Pradesh, India",BARABANKI,"27.063630564540947, 81.39244958376409"
Static Lab Bansdih,BALLIA,UTTAR PRADESH,rakeshkkarma75@gmail.com,+919005369477,"SABJI MANDI KEWARA, Bhojapur - Sonbarsa Road, Jitoura, Uttar Pradesh 277202, India",BALLIA,"25.8574784, 84.2639873"
mini lab Powayan,SHAHJAHANPUR,UTTAR PRADESH,rajeev1255@gmail.com,+919936187898,"Powayan Road, Samulia, Uttar Pradesh, India",SHAHJAHANPUR,"28.060101, 80.0892357"
TESHIL LABEL SOIL TESTING PROYGSHALA,SULTANPUR,UTTAR PRADESH,rhbh2014@gmail.com,+917985444285,"H582+497 Nehruwa Kalan, Bihar, India",SULTANPUR,"26.56529664452358, 84.15093445269335"
"Tehsil Stareey Mrida pareekshan prayogshala, Naraini",BANDA,UTTAR PRADESH,kailashnathtripathi87@gmail.com,+919452871064,"Naraini, Uttar Pradesh, India",BANDA,"25.1877535, 80.4729768"
Mini Lab Bharthana,ETAWAH,UTTAR PRADESH,mukeshyadav703789@gmail.com,+917078723586,"Railway Bridge Kunwara, Bharthana Road, Turakpur Piparipur Pachar, Etawah, Uttar Pradesh, India",ETAWAH,"26.7338802, 79.2128997"
Mini Lab CHAURI CHAURA,GORAKHPUR,UTTAR PRADESH,pawany913@gmail.com,+919455158188,"Brahmpur, Uttar Pradesh, India",GORAKHPUR,"26.5832832, 83.5856087"
Mini Lab Harriya,BASTI,UTTAR PRADESH,DEEPAKSINGH782914@GMAIL.COM,+919918580090,"Basti - Faizabad Road, Sisai, Uttar Pradesh, India",BASTI,"26.7906954, 82.4497744"
Mini Lab Ramsanehi Ghat,BARABANKI,UTTAR PRADESH,ramnath6974@gmail.com,+918840559919,"Soil Testing Lab SDAEO Office Near Fire Station RS Ghat, Uttar Pradesh, India",BARABANKI,"26.796497059384773, 81.54902542821844"
"Tehsil stareey mrida pareeshan prayogshala, Baberu",BANDA,UTTAR PRADESH,rajendrakumaryd3@gmail.com,+919721634157,"Baberu Dehat, Uttar Pradesh, India",BANDA,"25.5393207, 80.7158977"
Mini lab KHAJANI,GORAKHPUR,UTTAR PRADESH,khanna.sudheer@gmail.com,+918684068923,"Rudrapur khajani, Khajani, Uttar Pradesh, India",GORAKHPUR,"26.6566053, 83.24855800000002"
Mini Lab Saifai,ETAWAH,UTTAR PRADESH,jk4836336@gmail.com,+917217262550,"Saifai, Uttar Pradesh, India",ETAWAH,"26.9568669, 78.9684177"
Tahsil astariy lab utraula,BALRAMPUR,UTTAR PRADESH,av22678@gmail.com,+917376719803,"Utraula, Balrampur, Uttar Pradesh 271604, India",BALRAMPUR,"27.3244804, 82.3976339"
Static Lab Rasra,BALLIA,UTTAR PRADESH,lbsharmaaz@gmail.com,+919889177154,"VV84+GG2, Nagra - Ballia Marg, Chhitauni, Rasra, Amtaharapura,Rasra Ballia Uttar Pradesh 221712, India",BALLIA,"25.8548427, 83.9948836"
minilab_chunar,MIRZAPUR,UTTAR PRADESH,231304gautamsingh@gmail.com,+919452634054,"4V5H+2Q4 Chunar, Uttar Pradesh, India",MIRZAPUR,"25.107502336941945, 82.87944167470644"
Mini Lab Nanpara Bahraich,BAHRAICH,UTTAR PRADESH,amarsingh16051990@gmail.com,+917607226095,"Nanpara Dehati, Uttar Pradesh, India",BAHRAICH,"27.8756851, 81.49105449999999"
LAB JANSATH,MUZAFFARNAGAR,UTTAR PRADESH,kumarlokendra2578@gmail.com,+919557767110,"Jansath - Muzaffarnagar Road, Uttar Pradesh, India",MUZAFFARNAGAR,"29.3855876, 77.796823"
minilab marihan,MIRZAPUR,UTTAR PRADESH,niharikasingh210993@gmail.com,+918115440549,"WP82+PGG Marihan, Uttar Pradesh, India",MIRZAPUR,"24.91682307867347, 82.701319965036"
Mini Lab Bhanpur,BASTI,UTTAR PRADESH,Pradeepgds2@gmail.com,+918840037009,"Basti-Dumariaganj Road, Ram Nagar, Sekhapur, Uttar Pradesh, India",BASTI,"27.0568337, 82.6544002"
Mini Lab Kundasar Kaisarganj,BAHRAICH,UTTAR PRADESH,vivekkamail45@gmail.com,+918960470075,"Kundasar Chauraha, Bahraich Road, Kundasar, Uttar Pradesh, India",BAHRAICH,"27.3277618, 81.5343757"
"Tehsil Level Soil Testing Laboratory, Tiloi",Amethi,UTTAR PRADESH,pawajrf85@gmail.com,+918052589732,"Tiloi, Amethi, Uttar Pradesh, India",Amethi,"26.4027564, 81.4791656"
Tahsil stariy lab tulsipur,BALRAMPUR,UTTAR PRADESH,rkyadav.abm@gmail.com,+917376476300,"Balrampur, Tulsipur, Uttar Pradesh 271208, India",BALRAMPUR,"27.5246311, 82.4156829"
DUDHI MINI LAB,SONBHADRA,UTTAR PRADESH,sandeepsinghmzp05@gmail.com,+919005320087,"Dudhinagar, Uttar Pradesh, India",SONBHADRA,"24.212895, 83.2402998"
"Tehsil Level Soil Testing Laboratory, Musafirkhana",Amethi,UTTAR PRADESH,stl.640amethi@gmail.com,+919554793770,"Musafirkhana, Amethi, Uttar Pradesh, India",Amethi,"26.3749483, 81.8022758"
Static Lab Badlapur,JAUNPUR,UTTAR PRADESH,satishkumarmaurya444@gmail.com,+919532851898,"Barauli, Badlapur, Jaunpur, Uttar Pradesh, India",JAUNPUR,"25.9027034, 82.45496570000002"
mini lab lalganj,MIRZAPUR,UTTAR PRADESH,anoopkp25@gmail.com,+917697106389,"2966+HWC Lalganj, Uttar Pradesh, India",MIRZAPUR,"25.011448591762118, 82.36226977385154"
mini sidhauli,SITAPUR,UTTAR PRADESH,anilbuddhipur94@gmail.com,+919532434070,"Sidhauli, Uttar Pradesh, India",SITAPUR,"27.2820753, 80.83442939999999"
Lab budhana,MUZAFFARNAGAR,UTTAR PRADESH,mruhela@gmail.com,+918077021189,"Budhana-Muzaffarnagar Road, Muzaffarnagar, Uttar Pradesh, India",MUZAFFARNAGAR,"29.4699907, 77.6801774"
MINI LAB CHAKIYA,CHANDAULI,UTTAR PRADESH,snmaurya0874@gmail.com,+919415602714,"45JP+J5R Mawaiya, Uttar Pradesh, India",CHANDAULI,"25.13160736794955, 83.18538876017361"
mini_ratds meerut,MEERUT,UTTAR PRADESH,jitendrakr1293@gmail.com,+919670662273,"RATDS FARM, Madhav Puram, Meerut, Uttar Pradesh, India",MEERUT,"28.9556411, 77.68818130000001"
mini laharpur,SITAPUR,UTTAR PRADESH,shyamsinghmittra@gmail.com,+919918192925,"Laharpur, Uttar Pradesh, India",SITAPUR,"27.710096, 80.901416"
mini lab itwa,SIDDHARTH NAGAR,UTTAR PRADESH,SKANAND080@GMAIL.COM,+916394800520,"Itwa, Siddharthnagar, Uttar Pradesh, India",SIDDHARTH NAGAR,"27.3315831, 82.6970614"
mini_sardhana,MEERUT,UTTAR PRADESH,madansharma.ta@gmail.com,+919760489370,"Sardhan, Uttar Pradesh, India",MEERUT,"29.2572342, 77.71122629999999"
Mini Lab Gola,KHERI,UTTAR PRADESH,babulal81578@gmail.com,+919936529921,"Gola Gokaran Nath, Uttar Pradesh, India",KHERI,"28.0751563, 80.463245"
mini Biswan,SITAPUR,UTTAR PRADESH,ramchandra020271977@gmail.com,+918840312126,"Biswan - Sitapur Road, Bada Chauraha, Biswan, Uttar Pradesh, India",SITAPUR,"27.4961424, 80.9931905"
Mini Lab Mohammadi,KHERI,UTTAR PRADESH,usman.ali152@gmail.com,+919058093953,"Mohammadi, Lakhimpur Kheri, Uttar Pradesh, India",KHERI,"27.9546524, 80.213534"
KONCH LAB,JALAUN,UTTAR PRADESH,vinodbharti142@gmail.com,+918896013088,"2527+H6F Konch, Uttar Pradesh, India",JALAUN,"26.001442607779868, 79.16304711760633"
Lab kulpahar,MAHOBA,UTTAR PRADESH,sitalprasad58@gmail.com,+916394060436,"Kulpahar, Mahoba, Uttar Pradesh, India",MAHOBA,"25.3087385, 79.63898209999999"
Mini Lab Dhaurahara,KHERI,UTTAR PRADESH,sureshk56998@gmail.com,+917398852688,"Dhaurahara Lakhimpur Kheri, Dhaurehra, Uttar Pradesh, India",KHERI,"27.995694, 81.085781"
Mini lab Sadar,MATHURA,UTTAR PRADESH,rakeshsharma76415@gmail.com,+919837380826,"Mathura DM Office, Police Lines, Mathura Cantonment, Mathura, Uttar Pradesh, India",MATHURA,"27.4754871, 77.6932188"
LAB JALAUN,JALAUN,UTTAR PRADESH,angadsingh@redifmail.com,+917000565105,"39FC+92V Rura Malloo, Uttar Pradesh, India",JALAUN,"26.073490966095434, 79.37003232779314"
mini lab domariyaganj,SIDDHARTH NAGAR,UTTAR PRADESH,asalamansari@90gmail.com,+918429288026,"Beninagar, Siddharthnagar, Uttar Pradesh, India",SIDDHARTH NAGAR,"27.4802406, 82.8734842"
Mini lab chhata,MATHURA,UTTAR PRADESH,ar2192bm@gmail.com,+918909850112,"PFCW+V9J Chhata Rural, Uttar Pradesh, India",MATHURA,"27.722212308769063, 77.49587868998982"
Mini Lab Nighsan,KHERI,UTTAR PRADESH,gautamnarendrakumar88@gmail.com,+919721197464,"Nighasan, Lakhimpur Kheri, Uttar Pradesh, India",KHERI,"28.2334678, 80.8709872"
Lab khaga,FATEHPUR,UTTAR PRADESH,premsingh71984@gmail.com,+918853041877,"Khaga, उत्तर प्रदेश, भारत",FATEHPUR,"25.7720835, 81.10353420000001"
Mini lab Fatehabad,AGRA,UTTAR PRADESH,pankajch750@gmail.com,+919412592971,"Fatehabad, Agra, उत्तर प्रदेश, भारत",AGRA,"27.0221711, 78.3074027"
LAB KALPI,JALAUN,UTTAR PRADESH,ds7964718@gmail.com,+919669283144,"4P6R+M8C Kalpi, Uttar Pradesh, India",JALAUN,"26.11168146138272, 79.74075829261179"
mini lab kheragarh,AGRA,UTTAR PRADESH,os04000382@gmail.com,+917037708526,"Kheragarh, Agra, उत्तर प्रदेश, भारत",AGRA,"26.9425734, 77.819014"
Mini Lab Bah,AGRA,UTTAR PRADESH,shriprasadsharma1965@gmail.com,+919917603621,"Bah, Agra, उत्तर प्रदेश, भारत",AGRA,"26.8715045, 78.5916335"
Lab sadabad,HATHRAS,UTTAR PRADESH,raazkumarpathak@gmail.com,+919720880501,"Sadabad, Hathras, Uttar Pradesh, India",HATHRAS,"27.439091, 78.03380779999999"
Mini Lab Kirawali,AGRA,UTTAR PRADESH,singhcb333@gmail.com,+918630008464,"Kiraoli, Agra, उत्तर प्रदेश, भारत",AGRA,"27.1367245, 77.7852575"
SDEAO OFFICE SUBDISTRICT LAB,DEORIA,UTTAR PRADESH,ashish7763@gmail.com,+919919501854,"CJJ6+QCF Rudrapur, Uttar Pradesh, India",DEORIA,"26.43194673425931, 83.6110499905819"
mini lab behat,SAHARANPUR,UTTAR PRADESH,raojabbarkhan@gmail.com,+919719803765,"Muzaffarabad, Saharanpur Division, Uttar Pradesh, India",SAHARANPUR,"30.1181418, 77.71373059999999"
SDEAO office subdistrict lab,DEORIA,UTTAR PRADESH,manish11283@gmail.com,+918858298112,"7WW7+G7M Salempur, Uttar Pradesh, India",DEORIA,"26.29634077929251, 83.91316690783152"
Mini lab saini,KAUSHAMBI,UTTAR PRADESH,sksinghagro91@gmail.com,+917068589410,"M88G+Q2Q Saini, Uttar Pradesh, India",KAUSHAMBI,"25.666959955436738, 81.32512387775725"
mini lab deoband,SAHARANPUR,UTTAR PRADESH,rchand9557111301@gmail.com,+919557111301,"Deoband, Uttar Pradesh, India",SAHARANPUR,"29.6880187, 77.6820491"
mini lab nakur,SAHARANPUR,UTTAR PRADESH,shivkumar256@gmail.com,+919456455532,"Khera Afghan, Saharanpur Division, Uttar Pradesh, India",SAHARANPUR,"29.8956426, 77.37192019999999"
Lab Charkhari,MAHOBA,UTTAR PRADESH,dharmendraraj885@gmail.com,+916387459072,"Charkhari, Mahoba, Uttar Pradesh, India",MAHOBA,"25.4018785, 79.7501005"
Lab Malwa,FATEHPUR,UTTAR PRADESH,anandpal.1146@gmail.com,+917905849318,"Malwa, उत्तर प्रदेश, भारत",FATEHPUR,"26.0354787, 80.7061947"
Tarabganj,GONDA,UTTAR PRADESH,anilmaurya7428@gmail.com,+917379761063,"Tarabganj, Uttar Pradesh, India",GONDA,"26.9579925, 81.9840897"
Mankapur,GONDA,UTTAR PRADESH,nirwanokar@gmail.com,+919627312476,"Mankapur - Jhilahi - Gonda Bypass Road, Bhitaura, Dharampur, Mankapur, Uttar Pradesh, India",GONDA,"27.0499346, 82.2050493"
colonelganj,GONDA,UTTAR PRADESH,yadavharendra1004@gmail.com,+919044257721,"Colonelganj, Uttar Pradesh, India",GONDA,"27.1301495, 81.6995822"
mini lab mau,CHITRAKOOT,UTTAR PRADESH,tstlmau136@gmail.com,+919119951591,"Mau chitrakoot, Mau, Uttar Pradesh, India",CHITRAKOOT,"25.2709398, 81.3701881"
STATICLAB Jhinjak,KANPUR DEHAT,UTTAR PRADESH,satyapal2002@gmail.com,+918115252581,"CQ9W+R3G Derapur, Uttar Pradesh, India",KANPUR DEHAT,"26.419573561683286, 79.79521147002251"
Soil Laboratory Purwa,UNNAO,UTTAR PRADESH,skumar8387@gmail.com,+917376220292,"Kasba Paschim, Uttar Pradesh 209825, India",UNNAO,"26.467607, 80.7602394"
mini mahmudabad,SITAPUR,UTTAR PRADESH,amodkumar0087@gmail.com,+919455034306,"Cemetery Gularamau, Gularamau, Sitapur, Uttar Pradesh, India",SITAPUR,"27.2772412, 81.1334012"
MINI LAB BHIDHUNA,AURAIYA,UTTAR PRADESH,bijendrasingh123455@gmail.com,+917302735936,"Bidhuna, Uttar Pradesh, India",AURAIYA,"26.8030435, 79.5055246"
Mini Bhongaon,MAINPURI,UTTAR PRADESH,Avanendrakumar9927@gmail.com,+919927109882,"Bhongaon(Mainpuri), Uttar Pradesh, India",MAINPURI,"27.2532207, 79.2204426"
Mini Karhal,MAINPURI,UTTAR PRADESH,Bandanatanu@gmail.com,+919410634081,"Karhal, Uttar Pradesh, India",MAINPURI,"27.0038017, 78.9373099"
mini_mawana,MEERUT,UTTAR PRADESH,Shiv62422@gmail.com,+919412832379,"Mawana, Meerut Division, Uttar Pradesh, India",MEERUT,"29.0969563, 77.9204938"
STATICLAB,KANPUR DEHAT,UTTAR PRADESH,dkkumarsms@gmail.com,+919935988463,"Rasulabad, Uttar Pradesh, India",KANPUR DEHAT,"26.6760579, 79.77783509999999"
STATICLAB,KANPUR DEHAT,UTTAR PRADESH,jainendrasingh113@gmail.com,+917355456495,"Pukhrayan, Uttar Pradesh, India",KANPUR DEHAT,"26.2266671, 79.8380778"
Soil Testing Laboratory Hasanganj Nawabganj Unnao,UNNAO,UTTAR PRADESH,skumar.562@rediffmail.com,+919956791765,"Nawabganj, Uttar Pradesh, India",UNNAO,"26.9268042, 81.1833809"
mini_karauthi siana,BULANDSHAHR,UTTAR PRADESH,trilokchand18p@gmail.com,+919548247506,"Siyana, Siyana, Uttar Pradesh 203412, India",BULANDSHAHR,"28.6180591, 78.0309542"
Static Lab,GHAZIPUR,UTTAR PRADESH,singhmanoj686@gmail.com,+919140403848,"KUNDESAR 233227, KUNDESAR, Mohammadabad, Uttar Pradesh, India",GHAZIPUR,"25.6011299, 83.8102214"
Soil Testing Laboratory Safipur Unnao,UNNAO,UTTAR PRADESH,surjeetverma944@gmail.com,+919956343439,"Babhana, Uttar Pradesh 209871, India",UNNAO,"26.7252337, 80.3742163"
mini_anupshahr,BULANDSHAHR,UTTAR PRADESH,sachinsharma36398@gmail.com,+919456946026,"Anupshahr, Bulandshahr, Uttar Pradesh, India",BULANDSHAHR,"28.3540864, 78.2675478"
Static Lab,GHAZIPUR,UTTAR PRADESH,vedupc@gmail.com,+919140821562,"Ghazipur - Saiyadraja Marg, Bichali Patti, Baruin Rural 232331, Uttar Pradesh, India",GHAZIPUR,"25.3640567, 83.5417298"
mini_sikandrabad,BULANDSHAHR,UTTAR PRADESH,lalitkumar866@gmail.com,+919720383852,"Sikandrabad, Bulandshahr, Uttar Pradesh, India",BULANDSHAHR,"28.4511246, 77.6954889"
mini_khurja,BULANDSHAHR,UTTAR PRADESH,vashusharma1408@gmail.com,+919690503151,"Taina gospur road, Gaospur Taina, Uttar Pradesh, India",BULANDSHAHR,"28.2366161, 77.8433094"
Static Lab,GHAZIPUR,UTTAR PRADESH,firturam18@gmail.com,+919919733994,"Katya, mahpur raipur marg, Katya, Ghazipur, Uttar Pradesh, India",GHAZIPUR,"25.6468605, 83.2723761"
mini misrikh,SITAPUR,UTTAR PRADESH,mitanlalsingh1985@gmail.com,+917800238332,"Misrikh-cum-Neemsar, Uttar Pradesh, India",SITAPUR,"27.4292761, 80.5299541"
Static Mrida parikshan prayogshala shodh kendra varanasi,VARANASI,UTTAR PRADESH,sandhyafariya6@gmail.com,+917054225884,Collectry from chandpur chauraha varanasi,VARANASI,"-155.11344338590595, -89.99921158442079"
SANDILA,HARDOI,UTTAR PRADESH,skaditya095@gmail.com,+918081148650,"3FC9+V37 Som, Uttar Pradesh, India",HARDOI,"27.07217168217069, 80.46767781072309"
BILGRAM,HARDOI,UTTAR PRADESH,sanjayjita@gmail.com,+917607620234,"53C8+484 Chandpur, Bilgram, Uttar Pradesh, India",HARDOI,"27.170264066625332, 80.065843690652"
Lab Sikandra Rao,HATHRAS,UTTAR PRADESH,sanjanasingh4141@gmail.com,+918533824181,"Sikandra Rao, Uttar Pradesh, India",HATHRAS,"27.6864088, 78.37827399999999"
SHAHABAD,HARDOI,UTTAR PRADESH,vikratdss@gmail.com,+916388080021,"MWRJ+FQP Udhranpur, Shahabad, Uttar Pradesh, India",HARDOI,"27.691200542131952, 79.93195622121635"
Mini Lab Kunda,PRATAPGARH,UTTAR PRADESH,neerajsoni.900@gmail.com,+919584877883,"PGC8+3HF Kunda, Uttar Pradesh, India",PRATAPGARH,"25.72018044072252, 81.51640850451543"
Mini Lab Patti,PRATAPGARH,UTTAR PRADESH,sish1988@gmail.com,+919919799820,"W6M2+4PH Patti, Uttar Pradesh, India",PRATAPGARH,"25.932813503055275, 82.20186995115078"
Mini Lab Lalganj,PRATAPGARH,UTTAR PRADESH,d.k.gaur.2012@gmail.com,+919936739346,"WPHF+V4Q Dhadhuwa Gajan, Uttar Pradesh, India",PRATAPGARH,"25.929718051333587, 81.72284493741468"
mini lab Jalalabad,SHAHJAHANPUR,UTTAR PRADESH,pramodagr88@gmail.com,+919198123956,"NAGARIYA PLAYGROUND, Jalalabad, Nagaria Buzurg, Shahjahanpur, Uttar Pradesh, India",SHAHJAHANPUR,"27.714296, 79.6592373"
Mini Lab_Dalmau,RAE BARELI,UTTAR PRADESH,rajusatparkash@gmail.com,+918006004201,"Pakharauli, Raebareli, Uttar Pradesh 229207, India",RAE BARELI,"26.0541, 81.06994619999999"
Mini Lab Salon,RAE BARELI,UTTAR PRADESH,rajkumarghathera@gmail.com,+919412025410,"Dubhan Salon, Uttar Pradesh 229127, India",RAE BARELI,"26.0305661, 81.455364"
Mini Lab Mahrajganj,RAE BARELI,UTTAR PRADESH,dush643@gmail.com,+919971472873,"Maharajganj, Maharajganj, Raebareli, Uttar Pradesh 229306, India",RAE BARELI,"26.3791835, 81.2778524"
mini_Research Centre RATDS,BARABANKI,UTTAR PRADESH,yashwantbhu@gmail.com,+918318392810,"DD Research RATDS, up krishi nideshak karyalaya campus, Barabanki, Uttar Pradesh, India",BARABANKI,"26.928955966081084, 81.2150226573119"
Mini Lab Bansi,SIDDHARTH NAGAR,UTTAR PRADESH,shivpd3775@gmail.com,+919453520914,"Bansi, Uttar Pradesh, India",SIDDHARTH NAGAR,"27.1751518, 82.93146"
SDAEO LAB,PRAYAGRAJ,UTTAR PRADESH,mukeshkushwaha392@gmail.com,+918319774166,"Bara, Prayagraj Division, Uttar Pradesh, India",PRAYAGRAJ,"25.0356171, 82.1373629"
SDAEO LAB,PRAYAGRAJ,UTTAR PRADESH,pradipbabubb@gmail.com,+919557668323,"Meja Tehsil, Prayagraj, Uttar Pradesh, India",PRAYAGRAJ,"25.144565, 82.107523"
SDAEO LAB,PRAYAGRAJ,UTTAR PRADESH,bharatlalmaurya143@gmail.com,+919450210959,"Handia, Prayagraj Division, Uttar Pradesh, India",PRAYAGRAJ,"25.3627247, 82.18987030000001"
SDAEO LAB,PRAYAGRAJ,UTTAR PRADESH,vps6954@gmail.com,+919454311139,"Karchhana, Prayagraj Division, Uttar Pradesh, India",PRAYAGRAJ,"25.2757799, 81.94939"
SDAEO LAB,PRAYAGRAJ,UTTAR PRADESH,dharmendra5164@gmail.com,+917007690046,"Phulpur, Prayagraj Division, Uttar Pradesh, India",PRAYAGRAJ,"25.5510396, 82.088374"
SDAEO LAB,PRAYAGRAJ,UTTAR PRADESH,poonm9453@gmail.com,+919453276063,"Soraon, Prayagraj Division, Uttar Pradesh, India",PRAYAGRAJ,"25.6070169, 81.8497567"
Coromandel international LTD.,SAHARANPUR,UTTAR PRADESH,nutriclinicbiharigarh@coromandel.murugappa.com,+919548083124,"Bhihaarigarh, saharanpur (U.P.) Uttar Pradesh",SAHARANPUR,", "
ITC,GHAZIPUR,UTTAR PRADESH,shubham.singh@itc.in,+918090354357,Perishable Cargo Center Near Ghazipur Ghat Station Ghazipur Ghat Station Ghazipur-Uttar Pradesh,GHAZIPUR,", "
Padrauna Agri Farmers Company Ltd,KUSHI NAGAR,UTTAR PRADESH,umeshnebua712@gmail.com,+919648750388,"Madrahwa, Sarpathi Padrauna, Kushinagar  Kushinagar",KUSHI NAGAR,", "
ITC UP Hardoi,HARDOI,UTTAR PRADESH,sarvan.kumar@itc.in,+919956997996,Hardoi jaikishan FPC Sandi Hardoi Uttar Pradesh,HARDOI,", "
Badayuni Mahila Kisan Producer Company Limited,BUDAUN,UTTAR PRADESH,durgayadav64@gmail.com,+919454861707,patel market gs hero near Dataganj chungi Badaun UP,BUDAUN,", "
Haldaur Fed Producer Company Ltd,BIJNOR,UTTAR PRADESH,haldaurfedpcl@gmail.com,+919411223811,"Village and post Agri District Bijnor Uttar pardesh  BIJNOR, Uttar Pradesh, India ",BIJNOR,", "
Dayal Fertilizers,MEERUT,UTTAR PRADESH,rajni.visvakarma@dayalgroup.com,+919792201652,"Delhi Road, Partapur, Near Partapur Flyover, Meerut, UP",MEERUT,", "
VLSTL,AGRA,UTTAR PRADESH,agrijunction.arsena@gmail.com,+919058294444,"Arsena, Agra, Uttar Pradesh, India",AGRA,"27.2335126, 77.835692"
Village Level STL,VARANASI,UTTAR PRADESH,soiltestinglabvns@gmail.com,+919628377215,"9P87+6J5 Mahrajpur, Uttar Pradesh, India",VARANASI,"25.36552311119703, 82.71412429202674"
VLSTL,AGRA,UTTAR PRADESH,agrijunction.aurangpur@gmail.com,+919927861610,"Aurangpur, Agra, Uttar Pradesh, India",AGRA,"27.0276811, 77.8252609"
Kisan Seva Kendra,GORAKHPUR,UTTAR PRADESH,devendrasinghbaghelubal@gmail.com,+917351060111,"Barhalganj, Uttar Pradesh, India",GORAKHPUR,"26.2845823, 83.5066111"
VLSTL,AGRA,UTTAR PRADESH,pavan1tyagic@rediffmail.com,+918865977775,"Saiyan, Kheragarh, Khairagarh, Agra, Uttar Pradesh, India",AGRA,"26.953948, 77.82250549999999"
VLSTL,AGRA,UTTAR PRADESH,deepakojhaag@gmail.com,+919720558509,"Banguri, Agra, Uttar Pradesh, India",AGRA,"27.0753735, 78.1136794"
The United Provinces Sugar Co. Ltd,KUSHI NAGAR,UTTAR PRADESH,lab@upscl.in,+916307319671,"Seorahi,Khushinagar Uttar Pradesh",KUSHI NAGAR,", "
IFFCO Kisan_Chhata,MATHURA,UTTAR PRADESH,arvind.sharma@iffcokisan.com,+919536090802,"Nandvan Mega Food, Vill: Bhadawal, Barsana rd, Chhata",MATHURA,", "
ITC Ltd ABD_UP_Choupal Saagar,HARDOI,UTTAR PRADESH,sufiyanali097@gmail.com,+917897338057,"Shahabadpur, Badauli, Hardoi, UP.",HARDOI,", "
ITC Ltd ABD_UP_Choupal Saagar,HATHRAS,UTTAR PRADESH,antulakhnu@gmail.com,+919927212796,"Vill&post: lakhanu, Dist: hathras, UP.",HATHRAS,", "
DRF,BASTI,UTTAR PRADESH,sunilkumar.maurya@drreddysfoundation.org,+916393110569,"Vill-Goura, Near SBI, Kaptanganj Nakti Dei Bujurg, Uttar Pradesh ",BASTI,", "
DRF,KHERI,UTTAR PRADESH,bhaskarnarayan.singh@drreddysfoundation.org,+918917437871,"(Shukla Bhawan) infront of Shiv Sagar, Colony-Gola Lakhimpur, Highway behind JCB Main off",KHERI,", "
DRF,AZAMGARH,UTTAR PRADESH,pradeep.kumar@drreddysfoundation.org,+917388855752,"1st floor, Near Radha Restaurant, Gorakhpur, Bypass road, Darura, PST-Bhawarnath Azamgarh, Uttar Pradesh",AZAMGARH,", "
Dehaat_Bulandshar,BULANDSHAHR,UTTAR PRADESH,dharanikantsharma11@gmail.com,+918979658712,"Dehaat Nodal Center,Bulandshahr-Dibai Road, Near Surajbhan Inter College, Shikarpur, Sargaon, Uttar Pradesh",BULANDSHAHR,", "
Dehaat_Barabanki,BARABANKI,UTTAR PRADESH,virendrasingh11@gmail.com,+919935541315,"Belkhara, Barabanki dist, Salarpur, Uttar Pradesh",BARABANKI,", "
Samraddhsheel FPC Ltd. (IFFCO),ETAH,UTTAR PRADESH,santosh11@gmail.com,+919319353884,"Aliganj, Uttar Pradesh, India",ETAH,"27.4922073, 79.1689623"
Coromandel international LTD_Damodrabad,GAUTAM BUDDHA NAGAR,UTTAR PRADESH,drsonukumar11@gmail.com,+919154992155,"3rd Floor – KRBL Building, C-32, Sector 62, Noida, Uttar Pradesh, India",GAUTAM BUDDHA NAGAR,"28.5821195, 77.3266991"
MGEOLITE NEXUS NUTRITION LABS,AGRA,UTTAR PRADESH,mgeolitenexus01@gmail.com,+919997785732,PADHYAY MARKET BYE PASS KIRAOLI AGRA UP 283122,AGRA,"27.1367245, 77.7852575"
SHRIJI SOIL TESTING LAB,ALIGARH,UTTAR PRADESH,Simla13dec@gmail.com,+919759444049,"Iglas, Uttar Pradesh 202124, India",ALIGARH,"27.7080526, 77.93674089999999"
WTHO Soil Testing Lab,LUCKNOW,UTTAR PRADESH,whtosoiltestlab@gmail.com,+919455209949,"Lucknow, Uttar Pradesh 226006, India",LUCKNOW,"26.8746732, 80.9567113"
Static Mrida parikshan prayogshala shodh kendra varanasi,VARANASI,UTTAR PRADESH,cpupadhyay75@gmail.com,+919140905440,"Pintu Bike service center, Chandpur Chauraha, near Ayushi Zaika, Lohta Bazar, Varanasi, Chandapur, Uttar Pradesh, India",VARANASI,"25.3065028, 82.95460740000001"
